[{"OBJECT_NAME":"KUIPER-00102","OBJECT_ID":"2025-171J","EPOCH":"2026-03-09T11:30:56.364192","MEAN_MOTION":14.80054819,"ECCENTRICITY":5.281e-5,"INCLINATION":51.8972,"RA_OF_ASC_NODE":154.0024,"ARG_OF_PERICENTER":76.7277,"MEAN_ANOMALY":283.3744,"EPHEMERIS_TYPE":0,"CLASSIFICATION_TYPE":"U","NORAD_CAT_ID":65140,"ELEMENT_SET_NO":999,"REV_AT_EPOCH":3292,"BSTAR":0.00078622756,"MEAN_MOTION_DOT":5.795e-5,"MEAN_MOTION_DDOT":0},{"OBJECT_NAME":"FENGYUN 1C DEB","OBJECT_ID":"1999-025DEY","EPOCH":"2026-03-04T11:26:13.906176","MEAN_MOTION":14.67896512,"ECCENTRICITY":0.00744706,"INCLINATION":98.8891,"RA_OF_ASC_NODE":66.2119,"ARG_OF_PERICENTER":119.3213,"MEAN_ANOMALY":241.5456,"EPHEMERIS_TYPE":0,"CLASSIFICATION_TYPE":"U","NORAD_CAT_ID":33663,"ELEMENT_SET_NO":999,"REV_AT_EPOCH":65399,"BSTAR":0.0093731951,"MEAN_MOTION_DOT":0.0005626,"MEAN_MOTION_DDOT":0}]
